{
  "norad_id": 66528,
  "name": "STARLINK-35928",
  "history": [
    {
      "epoch": "2026-03-28T05:57:50.079456Z",
      "apogee_km": 483.93946333441727,
      "perigee_km": 482.06500009631145,
      "latitude_deg": -1.2155784270807644e-06,
      "longitude_deg": -102.17323048862897,
      "height_km": 483.0118590945513,
      "semi_major_axis_km": 6861.139231715364,
      "eccentricity": 0.0001366,
      "inclination_deg": 42.9989,
      "raan_deg": 172.9571,
      "arg_perigee_deg": 255.5958,
      "mean_anomaly_deg": 104.4742,
      "mean_motion_rev_day": 15.27595651
    },
    {
      "epoch": "2026-03-29T05:30:11.169216Z",
      "apogee_km": 484.2460627921473,
      "perigee_km": 481.6772674519243,
      "latitude_deg": -1.9800885268665706e-06,
      "longitude_deg": -101.76612572833353,
      "height_km": 482.4927591118596,
      "semi_major_axis_km": 6861.0986651220355,
      "eccentricity": 0.0001872,
      "inclination_deg": 43.0007,
      "raan_deg": 167.4188,
      "arg_perigee_deg": 281.0451,
      "mean_anomaly_deg": 79.019,
      "mean_motion_rev_day": 15.27609199
    },
    {
      "epoch": "2026-03-30T05:02:32.188992Z",
      "apogee_km": 484.6642821979458,
      "perigee_km": 481.3187959222996,
      "latitude_deg": 2.2742320763500725e-05,
      "longitude_deg": -101.35860057756783,
      "height_km": 482.2183684392307,
      "semi_major_axis_km": 6861.128539060122,
      "eccentricity": 0.0002438,
      "inclination_deg": 42.9987,
      "raan_deg": 161.8806,
      "arg_perigee_deg": 289.2139,
      "mean_anomaly_deg": 70.8449,
      "mean_motion_rev_day": 15.27599222
    },
    {
      "epoch": "2026-03-30T05:02:32.189856Z",
      "apogee_km": 484.66448803180174,
      "perigee_km": 481.31859008844367,
      "latitude_deg": 2.4970553832511888e-05,
      "longitude_deg": -101.35860181103436,
      "height_km": 482.2183007099321,
      "semi_major_axis_km": 6861.128539060122,
      "eccentricity": 0.00024383,
      "inclination_deg": 42.9987,
      "raan_deg": 161.8806,
      "arg_perigee_deg": 289.2139,
      "mean_anomaly_deg": 70.8449,
      "mean_motion_rev_day": 15.27599222
    },
    {
      "epoch": "2026-03-30T12:53:20.144544Z",
      "apogee_km": 484.4911540871517,
      "perigee_km": 481.9171905597659,
      "latitude_deg": 7.5739514833105215e-06,
      "longitude_deg": 138.77111818046856,
      "height_km": 482.9194871828374,
      "semi_major_axis_km": 6861.3411723234585,
      "eccentricity": 0.00018757,
      "inclination_deg": 43.001,
      "raan_deg": 160.0324,
      "arg_perigee_deg": 272.7563,
      "mean_anomaly_deg": 87.3074,
      "mean_motion_rev_day": 15.27528212
    },
    {
      "epoch": "2026-03-31T12:25:40.613952Z",
      "apogee_km": 484.0439961824195,
      "perigee_km": 481.6868301933446,
      "latitude_deg": 5.6894741457102036e-05,
      "longitude_deg": 139.18006966494278,
      "height_km": 482.39446345887876,
      "semi_major_axis_km": 6861.002413187882,
      "eccentricity": 0.00017178,
      "inclination_deg": 43.0021,
      "raan_deg": 154.4933,
      "arg_perigee_deg": 282.1538,
      "mean_anomaly_deg": 77.9122,
      "mean_motion_rev_day": 15.27641345
    },
    {
      "epoch": "2026-04-01T10:23:51.431424Z",
      "apogee_km": 484.0764494364721,
      "perigee_km": 481.9014725068446,
      "latitude_deg": 4.682641058388814e-05,
      "longitude_deg": 163.5626249903612,
      "height_km": 482.70173806011917,
      "semi_major_axis_km": 6861.125960971658,
      "eccentricity": 0.0001585,
      "inclination_deg": 43.0023,
      "raan_deg": 149.3232,
      "arg_perigee_deg": 273.3914,
      "mean_anomaly_deg": 86.6757,
      "mean_motion_rev_day": 15.27600083
    },
    {
      "epoch": "2026-04-02T14:38:39.683328Z",
      "apogee_km": 484.43950985500487,
      "perigee_km": 481.3945740711815,
      "latitude_deg": -3.400415057682999e-05,
      "longitude_deg": 92.05613806530418,
      "height_km": 482.5476160420951,
      "semi_major_axis_km": 6861.0540419630925,
      "eccentricity": 0.0002219,
      "inclination_deg": 43.0003,
      "raan_deg": 142.6779,
      "arg_perigee_deg": 275.5334,
      "mean_anomaly_deg": 84.5264,
      "mean_motion_rev_day": 15.27624102
    },
    {
      "epoch": "2026-04-03T12:36:50.645952Z",
      "apogee_km": 484.15165585130217,
      "perigee_km": 481.7313418000558,
      "latitude_deg": -2.3715952914493518e-05,
      "longitude_deg": 116.43800766566156,
      "height_km": 482.48261412188765,
      "semi_major_axis_km": 6861.078498825678,
      "eccentricity": 0.00017638,
      "inclination_deg": 43.0011,
      "raan_deg": 137.5077,
      "arg_perigee_deg": 281.246,
      "mean_anomaly_deg": 78.8193,
      "mean_motion_rev_day": 15.27615934
    }
  ]
}